132P/Helin-Roman-Alu,e,5.3783,174.0877,216.3783,3.885313,0.1286960,0.56532113,306.7007,09/25.0/2020,2000,g 11.0,6.0
# From MPEC 2020-HN5
132P/Helin-Roman-Alu,e,5.3783,174.0877,216.3783,3.885313,0.1286960,0.56532112,306.7007,09/25.0/2020,2000,g 11.0,6.0
# From MPEC 2015-E14
132P/Helin-Roman-Alu,e,5.3783,174.0876,216.3785,3.885313,0.1286960,0.56532122,306.7007,09/25.0/2020,2000,g 11.0,6.0
# From MPEC 2020-HN5
132P/Helin-Roman-Alu,e,5.3783,174.0877,216.3783,3.885314,0.1286960,0.56532111,306.7007,09/25.0/2020,2000,g 11.0,6.0
# From MPEC 2020-HN5
132P/Helin-Roman-Alu,e,5.3783,174.0877,216.3783,3.885314,0.1286960,0.56532112,306.7007,09/25.0/2020,2000,g 11.0,6.0
# From MPEC 2020-HN5
132P/Helin-Roman-Alu,e,5.3783,174.0877,216.3783,3.885314,0.1286960,0.56532112,306.7007,09/25.0/2020,2000,g 11.0,6.0
# From MPEC 2015-M77
133P/Elst-Pizarro,e,1.3891,160.1205,131.7434,3.163955,0.1751292,0.15713620,128.6122,09/25.0/2020,2000,g 15.4,2.0
# From MPEC 2015-M77
133P/Elst-Pizarro,e,1.3891,160.1205,131.7434,3.163955,0.1751292,0.15713620,128.6122,09/25.0/2020,2000,g 15.4,2.0
# From MPEC 2015-M77
133P/Elst-Pizarro,e,1.3891,160.1205,131.7434,3.163955,0.1751292,0.15713620,128.6122,09/25.0/2020,2000,g 15.4,2.0
# From MPEC 2015-M77
133P/Elst-Pizarro,e,1.3891,160.1205,131.7434,3.163955,0.1751292,0.15713620,128.6122,09/25.0/2020,2000,g 15.4,2.0
# From MPEC 2015-M77
133P/Elst-Pizarro,e,1.3891,160.1205,131.7434,3.163955,0.1751292,0.15713620,128.6122,09/25.0/2020,2000,g 15.4,2.0
# From MPC 94676
133P/Elst-Pizarro,e,1.3891,160.1205,131.7434,3.163955,0.1751292,0.15713620,128.6122,09/25.0/2020,2000,g 15.4,2.0
# From MPEC 2014-N57
134P/Kowal-Vavrova,e,4.3429,202.0804,18.8771,6.258257,0.0629541,0.58661243,146.0248,09/25.0/2020,2000,g 11.5,4.0
# From MPEC 2014-N57
134P/Kowal-Vavrova,e,4.3429,202.0804,18.8771,6.258256,0.0629541,0.58661239,146.0249,09/25.0/2020,2000,g 11.5,4.0
# From MPC 89012
134P/Kowal-Vavrova,e,4.3429,202.0804,18.8771,6.258256,0.0629541,0.58661235,146.0249,09/25.0/2020,2000,g 11.5,4.0
# From MPEC 2015-E14
135P/Shoemaker-Levy,e,6.0614,213.0421,22.2595,3.804051,0.1328417,0.29547524,285.7312,09/25.0/2020,2000,g  7.0,8.0
# From MPC 92985
135P/Shoemaker-Levy,e,6.0614,213.0421,22.2595,3.804051,0.1328417,0.29547524,285.7312,09/25.0/2020,2000,g  7.0,8.0
# From MPEC 2015-E14
135P/Shoemaker-Levy,e,6.0614,213.0421,22.2595,3.804051,0.1328417,0.29547524,285.7312,09/25.0/2020,2000,g  9.0,4.0
# From MPEC 2013-O31
136P/Mueller,e,9.4238,137.4445,224.8905,4.194909,0.1147150,0.29232812,180.9477,09/25.0/2020,2000,g 11.0,4.0
# From MPEC 2016-Q04
136P/Mueller,e,9.4240,137.4460,224.8930,4.194924,0.1147144,0.29232045,180.9471,09/25.0/2020,2000,g 11.0,4.0
# From MPC101100
136P/Mueller,e,9.4240,137.4460,224.8930,4.194925,0.1147144,0.29232062,180.9470,09/25.0/2020,2000,g 11.0,4.0
# From MPEC 2020-HN5
137P/Shoemaker-Levy,e,4.8534,233.0579,141.0123,4.520496,0.1025475,0.57328400,66.8087,09/25.0/2020,2000,g 11.0,4.0
# From unp
137P/Shoemaker-Levy,e,4.8534,233.0580,141.0122,4.520497,0.1025474,0.57328387,66.8086,09/25.0/2020,2000,g 11.0,4.0
# From MPEC 2020-HN5
137P/Shoemaker-Levy,e,4.8534,233.0579,141.0123,4.520496,0.1025475,0.57328400,66.8087,09/25.0/2020,2000,g 11.0,4.0
# From unp
137P/Shoemaker-Levy,e,4.8534,233.0580,141.0122,4.520497,0.1025474,0.57328387,66.8086,09/25.0/2020,2000,g 11.0,4.0
# From MPEC 2020-HN5
137P/Shoemaker-Levy,e,4.8534,233.0579,141.0123,4.520496,0.1025475,0.57328400,66.8087,09/25.0/2020,2000,g 11.0,4.0
# From MPEC 2020-HN5
137P/Shoemaker-Levy,e,4.8534,233.0579,141.0123,4.520496,0.1025475,0.57328400,66.8087,09/25.0/2020,2000,g 11.0,4.0
# From MPEC 2019-VB6
137P/Shoemaker-Levy,e,4.8534,233.0580,141.0122,4.520496,0.1025475,0.57328400,66.8087,09/25.0/2020,2000,g 11.0,4.0
# From MPEC 2020-HN5
137P/Shoemaker-Levy,e,4.8534,233.0579,141.0123,4.520496,0.1025475,0.57328400,66.8087,09/25.0/2020,2000,g 11.0,4.0
# From MPEC 2016-U66
138P/Shoemaker-Levy,e,10.0910,309.3317,95.5689,3.623004,0.1429226,0.53028451,73.0683,09/25.0/2020,2000,g 15.0,6.0
# From MPEC 2016-U66
138P/Shoemaker-Levy,e,10.0910,309.3317,95.5689,3.623005,0.1429225,0.53028461,73.0681,09/25.0/2020,2000,g 15.0,6.0
# From MPC102101
138P/Shoemaker-Levy,e,10.0910,309.3317,95.5689,3.623005,0.1429225,0.53028470,73.0679,09/25.0/2020,2000,g 15.0,6.0
# From MPEC 2016-U66
138P/Shoemaker-Levy,e,10.0910,309.3317,95.5689,3.623006,0.1429225,0.53028485,73.0677,09/25.0/2020,2000,g 15.0,6.0
# From MPEC 2018-BF5
139P/Vaisala-Oterma,e,2.3335,242.1905,165.7704,4.524250,0.1024198,0.24642830,104.5236,09/25.0/2020,2000,g  9.5,4.0
# From MPEC 2020-HN5
139P/Vaisala-Oterma,e,2.3335,242.1909,165.7698,4.524250,0.1024198,0.24642706,104.5237,09/25.0/2020,2000,g  9.5,4.0
# From MPEC 2020-HN5
139P/Vaisala-Oterma,e,2.3335,242.1909,165.7698,4.524251,0.1024198,0.24642706,104.5237,09/25.0/2020,2000,g  9.5,4.0
# From MPEC 2020-HN5
139P/Vaisala-Oterma,e,2.3335,242.1909,165.7698,4.524251,0.1024198,0.24642706,104.5237,09/25.0/2020,2000,g  9.5,4.0
# From MPEC 2020-HN5
139P/Vaisala-Oterma,e,2.3335,242.1909,165.7698,4.524251,0.1024198,0.24642706,104.5237,09/25.0/2020,2000,g  9.5,4.0
# From MPEC 2020-HN5
139P/Vaisala-Oterma,e,2.3335,242.1909,165.7698,4.524251,0.1024198,0.24642706,104.5237,09/25.0/2020,2000,g  9.5,4.0
# From MPEC 2020-HN5
139P/Vaisala-Oterma,e,2.3335,242.1909,165.7698,4.524251,0.1024198,0.24642706,104.5237,09/25.0/2020,2000,g  9.5,4.0
# From MPEC 2020-HN5
139P/Vaisala-Oterma,e,2.3335,242.1909,165.7698,4.524251,0.1024198,0.24642706,104.5237,09/25.0/2020,2000,g  9.5,4.0
# From MPEC 2018-BF5
139P/Vaisala-Oterma,e,2.3335,242.1905,165.7704,4.524250,0.1024198,0.24642830,104.5236,09/25.0/2020,2000,g  9.5,4.0
# From MPEC 2020-HN5
139P/Vaisala-Oterma,e,2.3335,242.1909,165.7698,4.524251,0.1024198,0.24642706,104.5237,09/25.0/2020,2000,g  9.5,4.0
# From MPEC 2020-HN5
139P/Vaisala-Oterma,e,2.3335,242.1909,165.7698,4.524251,0.1024198,0.24642706,104.5237,09/25.0/2020,2000,g  9.5,4.0
# From MPEC 2020-HN5
139P/Vaisala-Oterma,e,2.3335,242.1909,165.7698,4.524251,0.1024198,0.24642706,104.5237,09/25.0/2020,2000,g  9.5,4.0
# From MPEC 2015-E14
140P/Bowell-Skiff,e,3.8288,343.3092,172.9131,6.434652,0.0603833,0.69120790,113.3139,09/25.0/2020,2000,g 11.5,6.0
# From MPC 92985
140P/Bowell-Skiff,e,3.8288,343.3092,172.9131,6.434652,0.0603833,0.69120790,113.3139,09/25.0/2020,2000,g 11.5,6.0
# From MPEC 2015-E14
140P/Bowell-Skiff,e,3.8288,343.3092,172.9131,6.434652,0.0603833,0.69120790,113.3139,09/25.0/2020,2000,g 11.5,6.0
# From MPEC 2017-L52
141P/Machholz,e,13.9475,241.8463,153.5445,3.055872,0.1845021,0.73560235,345.0551,09/25.0/2020,2000,g 12.0,12.0
# From MPC105242
141P/Machholz,e,13.9454,241.8507,153.5409,3.056092,0.1844821,0.73562953,344.9817,09/25.0/2020,2000,g 12.0,12.0
# From NK 1458
141P-A/Machholz,e,13.9460,241.8439,153.5560,3.057038,0.1843966,0.73568725,344.8621,09/25.0/2020,2000,g 12.0,12.0
# From MPEC 2015-KD9
141P-A/Machholz,e,13.9448,241.8469,153.5579,3.057248,0.1843776,0.73570340,344.7999,09/25.0/2020,2000,g 12.0,12.0
# From MPC 24216
141P-B/Machholz,e,13.9885,241.7365,153.6360,3.055579,0.1845286,0.73544422,345.9772,09/25.0/2020,2000,g 12.0,12.0
# From NK 842
141P-D/Machholz,e,13.8285,242.1175,153.2779,3.064385,0.1837338,0.73662238,341.4582,09/25.0/2020,2000,g 12.0,12.0
# From MPC 37026
141P-D/Machholz,e,13.8376,242.0944,153.2975,3.064090,0.1837604,0.73656183,341.6973,09/25.0/2020,2000,g 12.0,12.0
# From MPEC 2015-R12
141P-E/Machholz,e,12.8152,246.1856,149.2667,3.012914,0.1884620,0.75023267,359.9529,09/19.0/1994,2000,g 12.0,12.0
# From MPEC 2015-R12
141P-F/Machholz,e,12.7898,246.1881,149.2374,3.010224,0.1887147,0.75000946,359.9630,09/19.0/1994,2000,g 12.0,12.0
# From MPEC 2015-R12
141P-G/Machholz,e,12.8259,246.3146,149.0784,3.005818,0.1891298,0.74964304,359.9802,09/19.0/1994,2000,g 12.0,12.0
# From MPC 95735
141P-H/Machholz,e,12.8431,246.0900,149.4500,3.008012,0.1889230,0.74682218,359.9270,08/24.0/2015,2000,g 18.5,4.0
# From unp
142P/Ge-Wang,e,12.2410,175.9781,173.9677,5.009283,0.0879105,0.49847317,339.8023,09/25.0/2020,2000,g  9.0,4.0
# From unp
142P/Ge-Wang,e,12.2410,175.9781,173.9678,5.009283,0.0879105,0.49847332,339.8020,09/25.0/2020,2000,g  9.0,4.0
# From MPC 71683
142P/Ge-Wang,e,12.2410,175.9781,173.9678,5.009284,0.0879105,0.49847347,339.8019,09/25.0/2020,2000,g  9.0,4.0
# From unp
142P/Ge-Wang,e,12.2410,175.9781,173.9678,5.009284,0.0879105,0.49847348,339.8019,09/25.0/2020,2000,g  8.5,6.0
# From MPEC 2015-M77
143P/Kowal-Mrkos,e,4.6969,245.2638,320.4730,4.285535,0.1110955,0.41057753,97.0015,09/25.0/2020,2000,g 13.5,2.0
# From MPEC 2020-K19
143P/Kowal-Mrkos,e,4.6970,245.2638,320.4734,4.285529,0.1110957,0.41057779,97.0045,09/25.0/2020,2000,g 13.5,2.0
# From MPEC 2020-K19
143P/Kowal-Mrkos,e,4.6970,245.2638,320.4734,4.285529,0.1110957,0.41057778,97.0045,09/25.0/2020,2000,g 13.5,2.0
# From MPEC 2015-M77
143P/Kowal-Mrkos,e,4.6970,245.2638,320.4733,4.285529,0.1110957,0.41057781,97.0045,09/25.0/2020,2000,g 13.5,2.0
# From MPEC 2020-K19
143P/Kowal-Mrkos,e,4.6970,245.2638,320.4734,4.285529,0.1110957,0.41057778,97.0045,09/25.0/2020,2000,g 13.5,2.0
# From MPEC 2020-K19
143P/Kowal-Mrkos,e,4.6970,245.2638,320.4734,4.285529,0.1110957,0.41057778,97.0045,09/25.0/2020,2000,g 13.5,2.0
# From MPEC 2020-K19
143P/Kowal-Mrkos,e,4.6970,245.2638,320.4734,4.285529,0.1110957,0.41057778,97.0045,09/25.0/2020,2000,g 13.5,2.0
# From MPEC 2020-K19
143P/Kowal-Mrkos,e,4.6970,245.2638,320.4734,4.285529,0.1110957,0.41057778,97.0045,09/25.0/2020,2000,g 13.5,2.0
# From MPEC 2017-J52
144P/Kushida,e,3.9689,243.7127,216.0021,3.812389,0.1324062,0.63814312,198.7895,09/25.0/2020,2000,g  8.5,8.0
# From MPEC 2017-J52
144P/Kushida,e,3.9689,243.7127,216.0021,3.812389,0.1324062,0.63814286,198.7900,09/25.0/2020,2000,g  8.5,8.0
# From MPC104795
144P/Kushida,e,3.9689,243.7127,216.0022,3.812388,0.1324062,0.63814268,198.7903,09/25.0/2020,2000,g  8.5,8.0
# From MPEC 2018-BF5
145P/Shoemaker-Levy,e,11.2677,26.7888,10.2578,4.139774,0.1170144,0.54103267,131.0653,09/25.0/2020,2000,g 13.5,4.0
# From MPEC 2018-BF5
